CCSDS_OMM_VERS = 2.0
CREATION_DATE  = 
ORIGINATOR     = 

OBJECT_NAME    = STARLINK-35816
OBJECT_ID      = 2025-263Q
CENTER_NAME    = EARTH
REF_FRAME      = TEME
TIME_SYSTEM    = UTC
MEAN_ELEMENT_THEORY = SGP/SGP4

EPOCH          = 2025-12-14T06:00:02.999808
MEAN_MOTION    = 15.40667010
ECCENTRICITY   = .00013525
INCLINATION    = 42.9996
RA_OF_ASC_NODE = 116.5253
ARG_OF_PERICENTER = 279.9506
MEAN_ANOMALY   = 85.1556

EPHEMERIS_TYPE = 0
CLASSIFICATION_TYPE = U
NORAD_CAT_ID   = 66499
ELEMENT_SET_NO = 999
REV_AT_EPOCH   = 587
BSTAR          = .21294234E-2
MEAN_MOTION_DOT = .896E-3
MEAN_MOTION_DDOT = 0

CCSDS_OMM_VERS = 2.0
CREATION_DATE  = 
ORIGINATOR     = 

OBJECT_NAME    = STARLINK-35894
OBJECT_ID      = 2025-263R
CENTER_NAME    = EARTH
REF_FRAME      = TEME
TIME_SYSTEM    = UTC
MEAN_ELEMENT_THEORY = SGP/SGP4

EPOCH          = 2025-12-14T06:00:02.999808
MEAN_MOTION    = 15.35295981
ECCENTRICITY   = .00012569
INCLINATION    = 42.9998
RA_OF_ASC_NODE = 116.7101
ARG_OF_PERICENTER = 260.7062
MEAN_ANOMALY   = 29.3264

EPHEMERIS_TYPE = 0
CLASSIFICATION_TYPE = U
NORAD_CAT_ID   = 66500
ELEMENT_SET_NO = 999
REV_AT_EPOCH   = 587
BSTAR          = -.55658732E-1
MEAN_MOTION_DOT = -.1758904E-1
MEAN_MOTION_DDOT = 0

CCSDS_OMM_VERS = 2.0
CREATION_DATE  = 
ORIGINATOR     = 

OBJECT_NAME    = STARLINK-35897
OBJECT_ID      = 2025-263S
CENTER_NAME    = EARTH
REF_FRAME      = TEME
TIME_SYSTEM    = UTC
MEAN_ELEMENT_THEORY = SGP/SGP4

EPOCH          = 2025-12-14T06:00:02.999808
MEAN_MOTION    = 15.40655686
ECCENTRICITY   = .00015359
INCLINATION    = 42.9999
RA_OF_ASC_NODE = 116.4652
ARG_OF_PERICENTER = 269.5240
MEAN_ANOMALY   = 120.4834

EPHEMERIS_TYPE = 0
CLASSIFICATION_TYPE = U
NORAD_CAT_ID   = 66501
ELEMENT_SET_NO = 999
REV_AT_EPOCH   = 587
BSTAR          = .2203105E-2
MEAN_MOTION_DOT = .92715E-3
MEAN_MOTION_DDOT = 0

CCSDS_OMM_VERS = 2.0
CREATION_DATE  = 
ORIGINATOR     = 

OBJECT_NAME    = STARLINK-35922
OBJECT_ID      = 2025-263T
CENTER_NAME    = EARTH
REF_FRAME      = TEME
TIME_SYSTEM    = UTC
MEAN_ELEMENT_THEORY = SGP/SGP4

EPOCH          = 2025-12-13T18:40:05.847744
MEAN_MOTION    = 15.50532408
ECCENTRICITY   = .00014149
INCLINATION    = 43.0006
RA_OF_ASC_NODE = 119.0096
ARG_OF_PERICENTER = 287.7100
MEAN_ANOMALY   = 72.3606

EPHEMERIS_TYPE = 0
CLASSIFICATION_TYPE = U
NORAD_CAT_ID   = 66502
ELEMENT_SET_NO = 999
REV_AT_EPOCH   = 572
BSTAR          = .20202122E-2
MEAN_MOTION_DOT = .119805E-2
MEAN_MOTION_DDOT = 0

CCSDS_OMM_VERS = 2.0
CREATION_DATE  = 
ORIGINATOR     = 

OBJECT_NAME    = STARLINK-35917
OBJECT_ID      = 2025-263U
CENTER_NAME    = EARTH
REF_FRAME      = TEME
TIME_SYSTEM    = UTC
MEAN_ELEMENT_THEORY = SGP/SGP4

EPOCH          = 2025-12-14T06:00:02.999808
MEAN_MOTION    = 15.40638084
ECCENTRICITY   = .00017489
INCLINATION    = 42.9999
RA_OF_ASC_NODE = 116.3735
ARG_OF_PERICENTER = 269.1088
MEAN_ANOMALY   = 158.2452

EPHEMERIS_TYPE = 0
CLASSIFICATION_TYPE = U
NORAD_CAT_ID   = 66503
ELEMENT_SET_NO = 999
REV_AT_EPOCH   = 587
BSTAR          = .2492067E-2
MEAN_MOTION_DOT = .105025E-2
MEAN_MOTION_DDOT = 0

CCSDS_OMM_VERS = 2.0
CREATION_DATE  = 
ORIGINATOR     = 

OBJECT_NAME    = STARLINK-35916
OBJECT_ID      = 2025-263V
CENTER_NAME    = EARTH
REF_FRAME      = TEME
TIME_SYSTEM    = UTC
MEAN_ELEMENT_THEORY = SGP/SGP4

EPOCH          = 2025-12-14T02:14:13.077888
MEAN_MOTION    = 15.40706755
ECCENTRICITY   = .00035387
INCLINATION    = 42.9966
RA_OF_ASC_NODE = 118.8375
ARG_OF_PERICENTER = 264.3324
MEAN_ANOMALY   = 95.7129

EPHEMERIS_TYPE = 0
CLASSIFICATION_TYPE = U
NORAD_CAT_ID   = 66504
ELEMENT_SET_NO = 999
REV_AT_EPOCH   = 575
BSTAR          = .11162764E-2
MEAN_MOTION_DOT = .46629E-3
MEAN_MOTION_DDOT = 0

CCSDS_OMM_VERS = 2.0
CREATION_DATE  = 
ORIGINATOR     = 

OBJECT_NAME    = STARLINK-34766
OBJECT_ID      = 2025-263W
CENTER_NAME    = EARTH
REF_FRAME      = TEME
TIME_SYSTEM    = UTC
MEAN_ELEMENT_THEORY = SGP/SGP4

EPOCH          = 2025-12-12T17:56:57.882624
MEAN_MOTION    = 15.50613801
ECCENTRICITY   = .00016181
INCLINATION    = 42.9974
RA_OF_ASC_NODE = 125.0394
ARG_OF_PERICENTER = 278.9286
MEAN_ANOMALY   = 81.1391

EPHEMERIS_TYPE = 0
CLASSIFICATION_TYPE = U
NORAD_CAT_ID   = 66505
ELEMENT_SET_NO = 999
REV_AT_EPOCH   = 556
BSTAR          = .19225717E-2
MEAN_MOTION_DOT = .114249E-2
MEAN_MOTION_DDOT = 0

CCSDS_OMM_VERS = 2.0
CREATION_DATE  = 
ORIGINATOR     = 

OBJECT_NAME    = STARLINK-34765
OBJECT_ID      = 2025-263X
CENTER_NAME    = EARTH
REF_FRAME      = TEME
TIME_SYSTEM    = UTC
MEAN_ELEMENT_THEORY = SGP/SGP4

EPOCH          = 2025-12-13T09:24:02.209536
MEAN_MOTION    = 15.50662448
ECCENTRICITY   = .00019802
INCLINATION    = 43.0016
RA_OF_ASC_NODE = 121.2760
ARG_OF_PERICENTER = 266.2517
MEAN_ANOMALY   = 93.8117

EPHEMERIS_TYPE = 0
CLASSIFICATION_TYPE = U
NORAD_CAT_ID   = 66506
ELEMENT_SET_NO = 999
REV_AT_EPOCH   = 566
BSTAR          = .20838032E-2
MEAN_MOTION_DOT = .124234E-2
MEAN_MOTION_DDOT = 0

CCSDS_OMM_VERS = 2.0
CREATION_DATE  = 
ORIGINATOR     = 

OBJECT_NAME    = STARLINK-34767
OBJECT_ID      = 2025-263Y
CENTER_NAME    = EARTH
REF_FRAME      = TEME
TIME_SYSTEM    = UTC
MEAN_ELEMENT_THEORY = SGP/SGP4

EPOCH          = 2025-12-14T06:00:02.999808
MEAN_MOTION    = 15.40653402
ECCENTRICITY   = .00016293
INCLINATION    = 42.9999
RA_OF_ASC_NODE = 116.4330
ARG_OF_PERICENTER = 274.2202
MEAN_ANOMALY   = 128.2301

EPHEMERIS_TYPE = 0
CLASSIFICATION_TYPE = U
NORAD_CAT_ID   = 66507
ELEMENT_SET_NO = 999
REV_AT_EPOCH   = 587
BSTAR          = .21551702E-2
MEAN_MOTION_DOT = .9066E-3
MEAN_MOTION_DDOT = 0

CCSDS_OMM_VERS = 2.0
CREATION_DATE  = 
ORIGINATOR     = 

OBJECT_NAME    = STARLINK-35608
OBJECT_ID      = 2025-263Z
CENTER_NAME    = EARTH
REF_FRAME      = TEME
TIME_SYSTEM    = UTC
MEAN_ELEMENT_THEORY = SGP/SGP4

EPOCH          = 2025-12-14T06:00:02.999808
MEAN_MOTION    = 15.40849259
ECCENTRICITY   = .000165
INCLINATION    = 43.0002
RA_OF_ASC_NODE = 116.3112
ARG_OF_PERICENTER = 257.2173
MEAN_ANOMALY   = 194.9573

EPHEMERIS_TYPE = 0
CLASSIFICATION_TYPE = U
NORAD_CAT_ID   = 66508
ELEMENT_SET_NO = 999
REV_AT_EPOCH   = 587
BSTAR          = -.68484499E-2
MEAN_MOTION_DOT = -.277608E-2
MEAN_MOTION_DDOT = 0

CCSDS_OMM_VERS = 2.0
CREATION_DATE  = 
ORIGINATOR     = 

OBJECT_NAME    = STARLINK-35598
OBJECT_ID      = 2025-263AA
CENTER_NAME    = EARTH
REF_FRAME      = TEME
TIME_SYSTEM    = UTC
MEAN_ELEMENT_THEORY = SGP/SGP4

EPOCH          = 2025-12-14T08:31:08.436000
MEAN_MOTION    = 15.50307356
ECCENTRICITY   = .00024598
INCLINATION    = 42.9963
RA_OF_ASC_NODE = 115.5964
ARG_OF_PERICENTER = 212.5604
MEAN_ANOMALY   = 147.5105

EPHEMERIS_TYPE = 0
CLASSIFICATION_TYPE = U
NORAD_CAT_ID   = 66509
ELEMENT_SET_NO = 999
REV_AT_EPOCH   = 581
BSTAR          = .14213788E-2
MEAN_MOTION_DOT = .8313E-3
MEAN_MOTION_DDOT = 0

CCSDS_OMM_VERS = 2.0
CREATION_DATE  = 
ORIGINATOR     = 

OBJECT_NAME    = STARLINK-35600
OBJECT_ID      = 2025-263AB
CENTER_NAME    = EARTH
REF_FRAME      = TEME
TIME_SYSTEM    = UTC
MEAN_ELEMENT_THEORY = SGP/SGP4

EPOCH          = 2025-12-13T17:04:51.354336
MEAN_MOTION    = 15.50691917
ECCENTRICITY   = .00026786
INCLINATION    = 43.0009
RA_OF_ASC_NODE = 119.3706
ARG_OF_PERICENTER = 264.2732
MEAN_ANOMALY   = 95.7823

EPHEMERIS_TYPE = 0
CLASSIFICATION_TYPE = U
NORAD_CAT_ID   = 66510
ELEMENT_SET_NO = 999
REV_AT_EPOCH   = 571
BSTAR          = .17561372E-2
MEAN_MOTION_DOT = .104495E-2
MEAN_MOTION_DDOT = 0

CCSDS_OMM_VERS = 2.0
CREATION_DATE  = 
ORIGINATOR     = 

OBJECT_NAME    = STARLINK-35444
OBJECT_ID      = 2025-263AC
CENTER_NAME    = EARTH
REF_FRAME      = TEME
TIME_SYSTEM    = UTC
MEAN_ELEMENT_THEORY = SGP/SGP4

EPOCH          = 2025-12-13T18:36:38.488608
MEAN_MOTION    = 15.50553327
ECCENTRICITY   = .00009555
INCLINATION    = 42.9995
RA_OF_ASC_NODE = 118.9895
ARG_OF_PERICENTER = 296.0653
MEAN_ANOMALY   = 64.0108

EPHEMERIS_TYPE = 0
CLASSIFICATION_TYPE = U
NORAD_CAT_ID   = 66511
ELEMENT_SET_NO = 999
REV_AT_EPOCH   = 572
BSTAR          = .15108389E-2
MEAN_MOTION_DOT = .89226E-3
MEAN_MOTION_DDOT = 0

CCSDS_OMM_VERS = 2.0
CREATION_DATE  = 
ORIGINATOR     = 

OBJECT_NAME    = STARLINK-35366
OBJECT_ID      = 2025-263AD
CENTER_NAME    = EARTH
REF_FRAME      = TEME
TIME_SYSTEM    = UTC
MEAN_ELEMENT_THEORY = SGP/SGP4

EPOCH          = 2025-12-13T17:02:53.035584
MEAN_MOTION    = 15.50610733
ECCENTRICITY   = .00025895
INCLINATION    = 43.0009
RA_OF_ASC_NODE = 119.3568
ARG_OF_PERICENTER = 263.1209
MEAN_ANOMALY   = 96.9357

EPHEMERIS_TYPE = 0
CLASSIFICATION_TYPE = U
NORAD_CAT_ID   = 66512
ELEMENT_SET_NO = 999
REV_AT_EPOCH   = 571
BSTAR          = .18726046E-2
MEAN_MOTION_DOT = .11122E-2
MEAN_MOTION_DDOT = 0

CCSDS_OMM_VERS = 2.0
CREATION_DATE  = 
ORIGINATOR     = 

OBJECT_NAME    = STARLINK-35692
OBJECT_ID      = 2025-263AE
CENTER_NAME    = EARTH
REF_FRAME      = TEME
TIME_SYSTEM    = UTC
MEAN_ELEMENT_THEORY = SGP/SGP4

EPOCH          = 2025-12-13T18:37:07.420512
MEAN_MOTION    = 15.50613635
ECCENTRICITY   = .00033711
INCLINATION    = 43.0049
RA_OF_ASC_NODE = 118.9928
ARG_OF_PERICENTER = 277.9214
MEAN_ANOMALY   = 82.1264

EPHEMERIS_TYPE = 0
CLASSIFICATION_TYPE = U
NORAD_CAT_ID   = 66513
ELEMENT_SET_NO = 999
REV_AT_EPOCH   = 572
BSTAR          = .16517493E-2
MEAN_MOTION_DOT = .97912E-3
MEAN_MOTION_DDOT = 0

